{
    "links": {
        "self": "http://www.neowsapp.com/rest/v1/neo/3615337?api_key=iIulBulltgU6a56xZRHN4H3l9WmuAYTsLGpBGhQ2"
    },
    "id": "3615337",
    "neo_reference_id": "3615337",
    "name": "(2012 US169)",
    "designation": "2012 US169",
    "nasa_jpl_url": "http://ssd.jpl.nasa.gov/sbdb.cgi?sstr=3615337",
    "absolute_magnitude_h": 21.0,
    "estimated_diameter": {
        "kilometers": {
            "estimated_diameter_min": 0.1677084622,
            "estimated_diameter_max": 0.3750075218
        },
        "meters": {
            "estimated_diameter_min": 167.7084621628,
            "estimated_diameter_max": 375.0075217981
        },
        "miles": {
            "estimated_diameter_min": 0.1042091748,
            "estimated_diameter_max": 0.2330187988
        },
        "feet": {
            "estimated_diameter_min": 550.2246310023,
            "estimated_diameter_max": 1230.3396778159
        }
    },
    "is_potentially_hazardous_asteroid": false,
    "close_approach_data": [
        {
            "close_approach_date": "1990-08-12",
            "close_approach_date_full": "1990-Aug-12 04:04",
            "epoch_date_close_approach": 650433840000,
            "relative_velocity": {
                "kilometers_per_second": "4.3329714056",
                "kilometers_per_hour": "15598.6970601007",
                "miles_per_hour": "9692.4237371498"
            },
            "miss_distance": {
                "astronomical": "0.2153617912",
                "lunar": "83.7757367768",
                "kilometers": "32217665.242904744",
                "miles": "20019128.8825997072"
            },
            "orbiting_body": "Earth"
        },
        {
            "close_approach_date": "2003-05-13",
            "close_approach_date_full": "2003-May-13 10:08",
            "epoch_date_close_approach": 1052820480000,
            "relative_velocity": {
                "kilometers_per_second": "1.6171460876",
                "kilometers_per_hour": "5821.7259152757",
                "miles_per_hour": "3617.3940833"
            },
            "miss_distance": {
                "astronomical": "1.8371399618",
                "lunar": "714.6474451402",
                "kilometers": "274832225.177161366",
                "miles": "170772825.8839282108"
            },
            "orbiting_body": "Juptr"
        },
        {
            "close_approach_date": "2041-08-12",
            "close_approach_date_full": "2041-Aug-12 19:47",
            "epoch_date_close_approach": 2259949620000,
            "relative_velocity": {
                "kilometers_per_second": "3.9588985459",
                "kilometers_per_hour": "14252.0347654116",
                "miles_per_hour": "8855.6601574303"
            },
            "miss_distance": {
                "astronomical": "0.2140922883",
                "lunar": "83.2819001487",
                "kilometers": "32027750.313105921",
                "miles": "19901121.2173108698"
            },
            "orbiting_body": "Earth"
        }
    ],
    "orbital_data": {
        "orbit_id": "9",
        "orbit_determination_date": "2019-07-22 06:08:59",
        "first_observation_date": "2012-10-22",
        "last_observation_date": "2012-11-17",
        "data_arc_in_days": 26,
        "observations_used": 26,
        "orbit_uncertainty": "6",
        "minimum_orbit_intersection": ".206228",
        "jupiter_tisserand_invariant": "3.375",
        "epoch_osculation": "2459000.5",
        "eccentricity": ".486351666369024",
        "semi_major_axis": "2.365725772882129",
        "inclination": "4.170800938390424",
        "ascending_node_longitude": "349.1490468480923",
        "orbital_period": "1329.06135030565",
        "perihelion_distance": "1.215151101068758",
        "perihelion_argument": "330.3554178213611",
        "aphelion_distance": "3.5163004446955",
        "perihelion_time": "2458770.173934729302",
        "mean_anomaly": "62.38792774944682",
        "mean_motion": ".2708678571664199",
        "equinox": "J2000",
        "orbit_class": {
            "orbit_class_type": "AMO",
            "orbit_class_description": "Near-Earth asteroid orbits similar to that of 1221 Amor",
            "orbit_class_range": "1.017 AU < q (perihelion) < 1.3 AU"
        }
    },
    "is_sentry_object": false
}